NORAD_CAT_ID,OBJECT_NAME,OBJECT_TYPE,EPOCH,MEAN_MOTION,ECCENTRICITY,INCLINATION,RA_OF_ASC_NODE,ARG_OF_PERICENTER,MEAN_ANOMALY,BSTAR,MEAN_MOTION_DOT,MEAN_MOTION_DDOT,TLE_LINE0,TLE_LINE1,TLE_LINE2,SEMIMAJOR_AXIS,PERIOD,APOGEE,PERIGEE,DECAYED
52677.0,STARLINK-4028,PAYLOAD,2024-06-02 07:33:47,15.08833015,0.0001366,53.2172,161.3167,92.0497,268.0652,-1.7522e-07,-2.91e-06,0.0,0 STARLINK-4028,1 52677U 22053X   24154.31513232 -.00000291  00000-0 -17522-6 0  9992,2 52677  53.2172 161.3167 0001366  92.0497 268.0652 15.08833015113728,6917.902,95.438,540.712,538.822,0.0
52677.0,STARLINK-4028,PAYLOAD,2024-06-03 04:13:48,15.08833359,0.0001381,53.2176,157.4517,93.7414,266.3736,3.677e-05,2.97e-06,0.0,0 STARLINK-4028,1 52677U 22053X   24155.17625487  .00000297  00000-0  36770-4 0  9991,2 52677  53.2176 157.4517 0001381  93.7414 266.3736 15.08833359113445,6917.901,95.438,540.721,538.81,0.0
52677.0,STARLINK-4028,PAYLOAD,2024-06-03 07:24:35,15.08830345,0.0001385,53.2175,156.856,91.4903,268.6248,6.777e-06,-1.8e-06,0.0,0 STARLINK-4028,1 52677U 22053X   24155.30873843 -.00000180  00000-0  67770-5 0  9994,2 52677  53.2175 156.8560 0001385  91.4903 268.6248 15.08830345113879,6917.91,95.438,540.733,538.817,0.0
52677.0,STARLINK-4028,PAYLOAD,2024-06-03 16:56:54,15.08828895,0.0001343,53.217,155.0721,92.9538,267.1608,-2.4977e-05,-6.85e-06,0.0,0 STARLINK-4028,1 52677U 22053X   24155.70618311 -.00000685  00000-0 -24977-4 0  9997,2 52677  53.2170 155.0721 0001343  92.9538 267.1608 15.08828895113521,6917.914,95.438,540.708,538.85,0.0
52677.0,STARLINK-4028,PAYLOAD,2024-06-04 08:50:45,15.08834126,0.0001216,53.2159,152.0971,91.9125,268.2006,4.6975e-05,4.6e-06,0.0,0 STARLINK-4028,1 52677U 22053X   24156.36858145  .00000460  00000-0  46975-4 0  9992,2 52677  53.2159 152.0971 0001216  91.9125 268.2006 15.08834126113621,6917.898,95.438,540.605,538.922,0.0
52677.0,STARLINK-4028,PAYLOAD,2024-06-04 16:47:40,15.08838611,0.0001272,53.2163,150.6111,97.239,262.8747,7.986e-05,9.83e-06,0.0,0 STARLINK-4028,1 52677U 22053X   24156.69977871  .00000983  00000-0  79860-4 0  9995,2 52677  53.2163 150.6111 0001272  97.2390 262.8747 15.08838611114087,6917.885,95.438,540.63,538.87,0.0
52677.0,STARLINK-4028,PAYLOAD,2024-06-05 05:30:45,15.08840437,0.0001224,53.2159,148.2315,98.4228,261.6902,0.0001656,2.349e-05,0.0,0 STARLINK-4028,1 52677U 22053X   24157.22969487  .00002349  00000-0  16560-3 0  9994,2 52677  53.2159 148.2315 0001224  98.4228 261.6902 15.08840437113753,6917.879,95.438,540.591,538.897,0.0
52677.0,STARLINK-4028,PAYLOAD,2024-06-05 07:06:08,15.08841785,0.0001256,53.2161,147.9344,97.7021,262.4113,0.00017834,2.552e-05,0.0,0 STARLINK-4028,1 52677U 22053X   24157.29593406  .00002552  00000-0  17834-3 0  9996,2 52677  53.2161 147.9344 0001256  97.7021 262.4113 15.08841785114179,6917.875,95.437,540.609,538.871,0.0
52677.0,STARLINK-4028,PAYLOAD,2024-06-05 22:59:59,15.08845363,0.000136,53.2157,144.9612,94.5775,265.5373,0.00014544,2.028e-05,0.0,0 STARLINK-4028,1 52677U 22053X   24157.95833256  .00002028  00000-0  14544-3 0  9992,2 52677  53.2157 144.9612 0001360  94.5775 265.5373 15.08845363114275,6917.864,95.437,540.67,538.788,0.0
52677.0,STARLINK-4028,PAYLOAD,2024-06-06 05:21:32,15.08839842,0.0001331,53.2162,143.7711,97.5119,262.6024,8.7164e-05,1.1e-05,0.0,0 STARLINK-4028,1 52677U 22053X   24158.22329773  .00001100  00000-0  87164-4 0  9996,2 52677  53.2162 143.7711 0001331  97.5119 262.6024 15.08839842113906,6917.881,95.438,540.667,538.825,0.0
52677.0,STARLINK-4028,PAYLOAD,2024-06-06 18:04:37,15.08847246,0.0001253,53.2163,141.3913,99.5751,260.5383,7.3164e-05,8.77e-06,0.0,0 STARLINK-4028,1 52677U 22053X   24158.75321155  .00000877  00000-0  73164-4 0  9995,2 52677  53.2163 141.3913 0001253  99.5751 260.5383 15.08847246113982,6917.858,95.437,540.59,538.856,0.0
52677.0,STARLINK-4028,PAYLOAD,2024-06-07 22:41:34,15.08841003,0.0001316,53.2168,136.0395,95.7933,264.3209,4.9044e-05,4.93e-06,0.0,0 STARLINK-4028,1 52677U 22053X   24159.94553309  .00000493  00000-0  49044-4 0  9999,2 52677  53.2168 136.0395 0001316  95.7933 264.3209 15.08841003114572,6917.877,95.437,540.653,538.832,0.0
52677.0,STARLINK-4028,PAYLOAD,2024-06-08 05:03:06,15.08840326,0.0001318,53.2168,134.8504,93.6331,266.4812,4.0054e-05,3.5e-06,0.0,0 STARLINK-4028,1 52677U 22053X   24160.21049373  .00000350  00000-0  40054-4 0  9996,2 52677  53.2168 134.8504 0001318  93.6331 266.4812 15.08840326114201,6917.879,95.438,540.656,538.833,0.0
52677.0,STARLINK-4028,PAYLOAD,2024-06-08 08:13:52,15.0884195,0.0001319,53.2169,134.2558,93.1332,266.9811,3.2159e-05,2.24e-06,0.0,0 STARLINK-4028,1 52677U 22053X   24160.34297280  .00000224  00000-0  32159-4 0  9999,2 52677  53.2169 134.2558 0001319  93.1332 266.9811 15.08841950114637,6917.874,95.437,540.652,538.827,0.0
52677.0,STARLINK-4028,PAYLOAD,2024-06-09 04:53:54,15.08835327,0.0001362,53.2171,130.3912,91.8126,268.3022,3.7512e-05,3.09e-06,0.0,0 STARLINK-4028,1 52677U 22053X   24161.20409809  .00000309  00000-0  37512-4 0  9999,2 52677  53.2171 130.3912 0001362  91.8126 268.3022 15.08835327114355,6917.895,95.438,540.702,538.817,0.0
52677.0,STARLINK-4028,PAYLOAD,2024-06-09 14:26:12,15.08836782,0.0001374,53.2174,128.6068,91.3057,268.8092,3.253e-05,2.3e-06,0.0,0 STARLINK-4028,1 52677U 22053X   24161.60153812  .00000230  00000-0  32530-4 0  9991,2 52677  53.2174 128.6068 0001374  91.3057 268.8092 15.08836782114821,6917.89,95.438,540.706,538.805,0.0
52677.0,STARLINK-4028,PAYLOAD,2024-06-10 14:17:00,15.08836489,0.0001437,53.2182,124.147,91.9791,268.1366,3.6066e-05,2.86e-06,0.0,0 STARLINK-4028,1 52677U 22053X   24162.59514176  .00000286  00000-0  36066-4 0  9993,2 52677  53.2182 124.1470 0001437  91.9791 268.1366 15.08836489114976,6917.891,95.438,540.75,538.762,0.0
52677.0,STARLINK-4028,PAYLOAD,2024-06-11 06:10:51,15.08839046,0.0001436,53.2181,121.1736,92.1231,267.9926,8.3441e-05,1.04e-05,0.0,0 STARLINK-4028,1 52677U 22053X   24163.25754054  .00001040  00000-0  83441-4 0  9996,2 52677  53.2181 121.1736 0001436  92.1231 267.9926 15.08839046115071,6917.883,95.438,540.742,538.755,0.0
52677.0,STARLINK-4028,PAYLOAD,2024-06-12 04:26:15,15.08838847,0.0001341,53.2176,117.0098,92.9354,267.1792,6.5811e-05,7.6e-06,0.0,0 STARLINK-4028,1 52677U 22053X   24164.18490245  .00000760  00000-0  65811-4 0  9997,2 52677  53.2176 117.0098 0001341  92.9354 267.1792 15.08838847114800,6917.884,95.438,540.677,538.821,0.0
52677.0,STARLINK-4028,PAYLOAD,2024-06-12 06:01:38,15.08839465,0.0001345,53.2177,116.7125,93.1307,266.984,7.0024e-05,8.27e-06,0.0,0 STARLINK-4028,1 52677U 22053X   24164.25114199  .00000827  00000-0  70024-4 0  9992,2 52677  53.2177 116.7125 0001345  93.1307 266.9840 15.08839465115228,6917.882,95.438,540.677,538.817,0.0
52677.0,STARLINK-4028,PAYLOAD,2024-06-12 07:37:01,15.08839771,0.0001352,53.2177,116.4152,93.5731,266.5416,7.2021e-05,8.58e-06,0.0,0 STARLINK-4028,1 52677U 22053X   24164.31738179  .00000858  00000-0  72021-4 0  9992,2 52677  53.2177 116.4152 0001352  93.5731 266.5416 15.08839771115234,6917.881,95.438,540.681,538.811,0.0
52677.0,STARLINK-4028,PAYLOAD,2024-06-13 05:52:25,15.08841282,0.0001364,53.2177,112.252,92.7935,267.3213,2.378e-05,9.1e-07,0.0,0 STARLINK-4028,1 52677U 22053X   24165.24474258  .00000091  00000-0  23780-4 0  9997,2 52677  53.2177 112.2520 0001364  92.7935 267.3213 15.08841282114960,6917.876,95.437,540.685,538.798,0.0
52677.0,STARLINK-4028,PAYLOAD,2024-06-13 13:49:21,15.08840968,0.0001356,53.2176,110.765,91.2839,268.8309,2.3106e-05,8e-07,0.0,0 STARLINK-4028,1 52677U 22053X   24165.57594231  .00000080  00000-0  23106-4 0  9997,2 52677  53.2176 110.7650 0001356  91.2839 268.8309 15.08840968115428,6917.877,95.437,540.68,538.804,0.0
52677.0,STARLINK-4028,PAYLOAD,2024-06-14 13:40:08,15.0884307,0.0001428,53.2183,106.3045,90.6908,269.4247,5.6308e-05,6.08e-06,0.0,0 STARLINK-4028,1 52677U 22053X   24166.56953954  .00000608  00000-0  56308-4 0  9994,2 52677  53.2183 106.3045 0001428  90.6908 269.4247 15.08843070115576,6917.871,95.437,540.724,538.748,0.0
52677.0,STARLINK-4028,PAYLOAD,2024-06-14 20:01:41,15.08838842,0.0001473,53.2182,105.1159,89.4803,270.6358,3.5659e-05,2.8e-06,0.0,0 STARLINK-4028,1 52677U 22053X   24166.83450293  .00000280  00000-0  35659-4 0  9994,2 52677  53.2182 105.1159 0001473  89.4803 270.6358 15.08838842115611,6917.884,95.438,540.768,538.73,0.0
52677.0,STARLINK-4028,PAYLOAD,2024-06-15 05:33:59,15.08840101,0.0001489,53.2184,103.3308,93.5664,266.5499,3.1097e-05,2.07e-06,0.0,0 STARLINK-4028,1 52677U 22053X   24167.23194219  .00000207  00000-0  31097-4 0  9993,2 52677  53.2184 103.3308 0001489  93.5664 266.5499 15.08840101115674,6917.88,95.438,540.775,538.715,0.0
52677.0,STARLINK-4028,PAYLOAD,2024-06-16 05:24:47,15.08838572,0.0001511,53.2189,98.8711,93.414,266.7025,3.486e-06,-2.33e-06,0.0,0 STARLINK-4028,1 52677U 22053X   24168.22554455 -.00000233  00000-0  34860-5 0  9997,2 52677  53.2189  98.8711 0001511  93.4140 266.7025 15.08838572115822,6917.885,95.438,540.795,538.704,0.0
52677.0,STARLINK-4028,PAYLOAD,2024-06-16 22:54:01,15.08835868,0.0001421,53.2183,95.5999,92.6317,267.4837,2.5358e-05,1.16e-06,0.0,0 STARLINK-4028,1 52677U 22053X   24168.95418622  .00000116  00000-0  25358-4 0  9992,2 52677  53.2183  95.5999 0001421  92.6317 267.4837 15.08835868115931,6917.893,95.438,540.741,538.775,0.0
52677.0,STARLINK-4028,PAYLOAD,2024-06-17 22:44:49,15.08834046,0.000145,53.219,91.1407,92.5592,267.5566,1.8696e-05,1e-07,0.0,0 STARLINK-4028,1 52677U 22053X   24169.94778952  .00000010  00000-0  18696-4 0  9997,2 52677  53.2190  91.1407 0001450  92.5592 267.5566 15.08834046116085,6917.899,95.438,540.767,538.76,0.0
52677.0,STARLINK-4028,PAYLOAD,2024-06-18 11:27:54,15.08834933,0.0001459,53.2192,88.7619,91.9314,268.1845,2.0016e-05,3.1e-07,0.0,0 STARLINK-4028,1 52677U 22053X   24170.47771046  .00000031  00000-0  20016-4 0  9996,2 52677  53.2192  88.7619 0001459  91.9314 268.1845 15.08834933116169,6917.896,95.438,540.77,538.752,0.0
